[{"OBJECT_NAME":"STARLINK-30973","OBJECT_ID":"2024-002J","EPOCH":"2026-03-09T16:03:24.974784","MEAN_MOTION":15.30180346,"ECCENTRICITY":0.00011247,"INCLINATION":53.1592,"RA_OF_ASC_NODE":229.9278,"ARG_OF_PERICENTER":82.5186,"MEAN_ANOMALY":277.5943,"EPHEMERIS_TYPE":0,"CLASSIFICATION_TYPE":"U","NORAD_CAT_ID":58713,"ELEMENT_SET_NO":999,"REV_AT_EPOCH":12201,"BSTAR":-4.3208601e-5,"MEAN_MOTION_DOT":-1.638e-5,"MEAN_MOTION_DDOT":0},{"OBJECT_NAME":"PHISAT 2","OBJECT_ID":"2024-149C","EPOCH":"2026-03-09T18:55:12.732384","MEAN_MOTION":15.29548632,"ECCENTRICITY":0.00011753,"INCLINATION":97.3806,"RA_OF_ASC_NODE":148.6498,"ARG_OF_PERICENTER":168.623,"MEAN_ANOMALY":191.5037,"EPHEMERIS_TYPE":0,"CLASSIFICATION_TYPE":"U","NORAD_CAT_ID":60470,"ELEMENT_SET_NO":999,"REV_AT_EPOCH":8679,"BSTAR":0.00031420974,"MEAN_MOTION_DOT":8.925e-5,"MEAN_MOTION_DDOT":0}]
